{
  "norad_id": 66073,
  "name": "STARLINK-35274",
  "history": [
    {
      "epoch": "2026-03-28T11:29:27.955392",
      "apogee_km": 476.10623392906837,
      "perigee_km": 474.34793483957856,
      "latitude_deg": 46.41362158854494,
      "longitude_deg": 113.26439487980679,
      "semi_major_axis_km": 6853.364084384323,
      "eccentricity": 0.00012828,
      "inclination_deg": 53.1592,
      "raan_deg": 158.3209,
      "arg_perigee_deg": 80.6834,
      "mean_anomaly_deg": 279.4312,
      "mean_motion_rev_day": 15.30195976
    }
  ]
}